[{"OBJECT_NAME":"APRIZESAT 3","OBJECT_ID":"2009-041F","EPOCH":"2026-03-09T21:53:07.275264","MEAN_MOTION":14.95902996,"ECCENTRICITY":0.00628853,"INCLINATION":98.1904,"RA_OF_ASC_NODE":217.4844,"ARG_OF_PERICENTER":35.8471,"MEAN_ANOMALY":324.6944,"EPHEMERIS_TYPE":0,"CLASSIFICATION_TYPE":"U","NORAD_CAT_ID":35686,"ELEMENT_SET_NO":999,"REV_AT_EPOCH":90153,"BSTAR":0.00014818153,"MEAN_MOTION_DOT":1.656e-5,"MEAN_MOTION_DDOT":0},{"OBJECT_NAME":"STARLINK-5861","OBJECT_ID":"2023-037H","EPOCH":"2026-03-09T22:11:41.498304","MEAN_MOTION":14.98330597,"ECCENTRICITY":0.00018361,"INCLINATION":69.9989,"RA_OF_ASC_NODE":303.8136,"ARG_OF_PERICENTER":272.3299,"MEAN_ANOMALY":87.765,"EPHEMERIS_TYPE":0,"CLASSIFICATION_TYPE":"U","NORAD_CAT_ID":55921,"ELEMENT_SET_NO":999,"REV_AT_EPOCH":16352,"BSTAR":-1.3230461e-5,"MEAN_MOTION_DOT":-2.51e-6,"MEAN_MOTION_DDOT":0}]
